[{"OBJECT_NAME":"STARLINK-1645","OBJECT_ID":"2021-012C","EPOCH":"2026-03-09T22:00:01.999584","MEAN_MOTION":15.81625444,"ECCENTRICITY":0.00097927,"INCLINATION":53.0423,"RA_OF_ASC_NODE":22.5258,"ARG_OF_PERICENTER":78.75,"MEAN_ANOMALY":175.006,"EPHEMERIS_TYPE":0,"CLASSIFICATION_TYPE":"U","NORAD_CAT_ID":47622,"ELEMENT_SET_NO":999,"REV_AT_EPOCH":585,"BSTAR":0.0011756393,"MEAN_MOTION_DOT":0.0024723,"MEAN_MOTION_DDOT":0},{"OBJECT_NAME":"STARLINK-36783","OBJECT_ID":"2026-034Z","EPOCH":"2026-03-09T17:08:42.650592","MEAN_MOTION":15.80933313,"ECCENTRICITY":0.00010214,"INCLINATION":53.1597,"RA_OF_ASC_NODE":211.0277,"ARG_OF_PERICENTER":93.0706,"MEAN_ANOMALY":267.0434,"EPHEMERIS_TYPE":0,"CLASSIFICATION_TYPE":"U","NORAD_CAT_ID":67873,"ELEMENT_SET_NO":999,"REV_AT_EPOCH":394,"BSTAR":0.00099078401,"MEAN_MOTION_DOT":0.00199999,"MEAN_MOTION_DDOT":0}]
